CCSDS_OMM_VERS = 2.0
CREATION_DATE  = 
ORIGINATOR     = 

OBJECT_NAME    = STARLINK-36221
OBJECT_ID      = 2025-304Z
CENTER_NAME    = EARTH
REF_FRAME      = TEME
TIME_SYSTEM    = UTC
MEAN_ELEMENT_THEORY = SGP/SGP4

EPOCH          = 2026-01-09T15:19:09.050016
MEAN_MOTION    = 15.52573852
ECCENTRICITY   = .00031357
INCLINATION    = 70.0001
RA_OF_ASC_NODE = 329.1763
ARG_OF_PERICENTER = 268.3955
MEAN_ANOMALY   = 91.6872

EPHEMERIS_TYPE = 0
CLASSIFICATION_TYPE = U
NORAD_CAT_ID   = 67215
ELEMENT_SET_NO = 999
REV_AT_EPOCH   = 489
BSTAR          = .16788428E-2
MEAN_MOTION_DOT = .104691E-2
MEAN_MOTION_DDOT = 0

CCSDS_OMM_VERS = 2.0
CREATION_DATE  = 
ORIGINATOR     = 

OBJECT_NAME    = STARLINK-36212
OBJECT_ID      = 2025-304AA
CENTER_NAME    = EARTH
REF_FRAME      = TEME
TIME_SYSTEM    = UTC
MEAN_ELEMENT_THEORY = SGP/SGP4

EPOCH          = 2026-01-09T15:18:39.370752
MEAN_MOTION    = 15.52573034
ECCENTRICITY   = .00031522
INCLINATION    = 70.0000
RA_OF_ASC_NODE = 329.1749
ARG_OF_PERICENTER = 270.2787
MEAN_ANOMALY   = 89.8038

EPHEMERIS_TYPE = 0
CLASSIFICATION_TYPE = U
NORAD_CAT_ID   = 67216
ELEMENT_SET_NO = 999
REV_AT_EPOCH   = 489
BSTAR          = .17377225E-2
MEAN_MOTION_DOT = .108417E-2
MEAN_MOTION_DDOT = 0

CCSDS_OMM_VERS = 2.0
CREATION_DATE  = 
ORIGINATOR     = 

OBJECT_NAME    = STARLINK-36216
OBJECT_ID      = 2025-304AB
CENTER_NAME    = EARTH
REF_FRAME      = TEME
TIME_SYSTEM    = UTC
MEAN_ELEMENT_THEORY = SGP/SGP4

EPOCH          = 2026-01-09T15:18:09.631872
MEAN_MOTION    = 15.52566606
ECCENTRICITY   = .00031252
INCLINATION    = 70.0000
RA_OF_ASC_NODE = 329.1735
ARG_OF_PERICENTER = 269.5676
MEAN_ANOMALY   = 90.5153

EPHEMERIS_TYPE = 0
CLASSIFICATION_TYPE = U
NORAD_CAT_ID   = 67217
ELEMENT_SET_NO = 999
REV_AT_EPOCH   = 489
BSTAR          = .13355534E-2
MEAN_MOTION_DOT = .83E-3
MEAN_MOTION_DDOT = 0

CCSDS_OMM_VERS = 2.0
CREATION_DATE  = 
ORIGINATOR     = 

OBJECT_NAME    = STARLINK-36211
OBJECT_ID      = 2025-304AC
CENTER_NAME    = EARTH
REF_FRAME      = TEME
TIME_SYSTEM    = UTC
MEAN_ELEMENT_THEORY = SGP/SGP4

EPOCH          = 2026-01-09T15:17:40.232544
MEAN_MOTION    = 15.52572963
ECCENTRICITY   = .00032508
INCLINATION    = 70.0000
RA_OF_ASC_NODE = 329.1723
ARG_OF_PERICENTER = 262.3641
MEAN_ANOMALY   = 97.7177

EPHEMERIS_TYPE = 0
CLASSIFICATION_TYPE = U
NORAD_CAT_ID   = 67218
ELEMENT_SET_NO = 999
REV_AT_EPOCH   = 486
BSTAR          = .17494471E-2
MEAN_MOTION_DOT = .10916E-2
MEAN_MOTION_DDOT = 0

CCSDS_OMM_VERS = 2.0
CREATION_DATE  = 
ORIGINATOR     = 

OBJECT_NAME    = DISKSAT C
OBJECT_ID      = 2025-305A
CENTER_NAME    = EARTH
REF_FRAME      = TEME
TIME_SYSTEM    = UTC
MEAN_ELEMENT_THEORY = SGP/SGP4

EPOCH          = 2026-01-08T19:35:10.529376
MEAN_MOTION    = 15.06289617
ECCENTRICITY   = .0002438
INCLINATION    = 45.0015
RA_OF_ASC_NODE = 207.4328
ARG_OF_PERICENTER = 353.8156
MEAN_ANOMALY   = 6.2688

EPHEMERIS_TYPE = 0
CLASSIFICATION_TYPE = U
NORAD_CAT_ID   = 67219
ELEMENT_SET_NO = 999
REV_AT_EPOCH   = 326
BSTAR          = .76768597E-3
MEAN_MOTION_DOT = .11233E-3
MEAN_MOTION_DDOT = 0

CCSDS_OMM_VERS = 2.0
CREATION_DATE  = 
ORIGINATOR     = 

OBJECT_NAME    = DISKSAT B
OBJECT_ID      = 2025-305B
CENTER_NAME    = EARTH
REF_FRAME      = TEME
TIME_SYSTEM    = UTC
MEAN_ELEMENT_THEORY = SGP/SGP4

EPOCH          = 2026-01-05T10:25:21.460224
MEAN_MOTION    = 15.06147621
ECCENTRICITY   = .00032437
INCLINATION    = 45.0028
RA_OF_ASC_NODE = 225.3108
ARG_OF_PERICENTER = 352.9991
MEAN_ANOMALY   = 7.0838

EPHEMERIS_TYPE = 0
CLASSIFICATION_TYPE = U
NORAD_CAT_ID   = 67220
ELEMENT_SET_NO = 999
REV_AT_EPOCH   = 275
BSTAR          = .83452852E-4
MEAN_MOTION_DOT = .1001E-4
MEAN_MOTION_DDOT = 0

CCSDS_OMM_VERS = 2.0
CREATION_DATE  = 
ORIGINATOR     = 

OBJECT_NAME    = DISKSAT D
OBJECT_ID      = 2025-305C
CENTER_NAME    = EARTH
REF_FRAME      = TEME
TIME_SYSTEM    = UTC
MEAN_ELEMENT_THEORY = SGP/SGP4

EPOCH          = 2026-01-08T22:48:09.218016
MEAN_MOTION    = 15.06203255
ECCENTRICITY   = .0002446
INCLINATION    = 45.0018
RA_OF_ASC_NODE = 206.7414
ARG_OF_PERICENTER = 6.6106
MEAN_ANOMALY   = 353.4801

EPHEMERIS_TYPE = 0
CLASSIFICATION_TYPE = U
NORAD_CAT_ID   = 67221
ELEMENT_SET_NO = 999
REV_AT_EPOCH   = 328
BSTAR          = .65623E-3
MEAN_MOTION_DOT = .9542E-4
MEAN_MOTION_DDOT = 0

CCSDS_OMM_VERS = 2.0
CREATION_DATE  = 
ORIGINATOR     = 

OBJECT_NAME    = DISKSAT A
OBJECT_ID      = 2025-305D
CENTER_NAME    = EARTH
REF_FRAME      = TEME
TIME_SYSTEM    = UTC
MEAN_ELEMENT_THEORY = SGP/SGP4

EPOCH          = 2026-01-08T19:38:37.273344
MEAN_MOTION    = 15.06154760
ECCENTRICITY   = .000244
INCLINATION    = 45.0019
RA_OF_ASC_NODE = 207.4498
ARG_OF_PERICENTER = 13.2570
MEAN_ANOMALY   = 346.8368

EPHEMERIS_TYPE = 0
CLASSIFICATION_TYPE = U
NORAD_CAT_ID   = 67222
ELEMENT_SET_NO = 999
REV_AT_EPOCH   = 325
BSTAR          = .89695E-3
MEAN_MOTION_DOT = .1312E-3
MEAN_MOTION_DDOT = 0

CCSDS_OMM_VERS = 2.0
CREATION_DATE  = 
ORIGINATOR     = 

OBJECT_NAME    = ELECTRON KICK STAGE R/B
OBJECT_ID      = 2025-305E
CENTER_NAME    = EARTH
REF_FRAME      = TEME
TIME_SYSTEM    = UTC
MEAN_ELEMENT_THEORY = SGP/SGP4

EPOCH          = 2025-12-23T06:58:48.011808
MEAN_MOTION    = 15.48545747
ECCENTRICITY   = .017749
INCLINATION    = 44.9877
RA_OF_ASC_NODE = 292.9264
ARG_OF_PERICENTER = 166.6089
MEAN_ANOMALY   = 193.9601

EPHEMERIS_TYPE = 0
CLASSIFICATION_TYPE = U
NORAD_CAT_ID   = 67223
ELEMENT_SET_NO = 999
REV_AT_EPOCH   = 79
BSTAR          = .18366E-3
MEAN_MOTION_DOT = .18707E-3
MEAN_MOTION_DDOT = 0

CCSDS_OMM_VERS = 2.0
CREATION_DATE  = 
ORIGINATOR     = 

OBJECT_NAME    = TJS-23
OBJECT_ID      = 2025-306A
CENTER_NAME    = EARTH
REF_FRAME      = TEME
TIME_SYSTEM    = UTC
MEAN_ELEMENT_THEORY = SGP/SGP4

EPOCH          = 2026-01-09T00:57:24.507072
MEAN_MOTION    = 1.00268741
ECCENTRICITY   = .00001219
INCLINATION    = 5.9502
RA_OF_ASC_NODE = 298.3118
ARG_OF_PERICENTER = 4.4365
MEAN_ANOMALY   = 355.7247

EPHEMERIS_TYPE = 0
CLASSIFICATION_TYPE = U
NORAD_CAT_ID   = 67226
ELEMENT_SET_NO = 999
REV_AT_EPOCH   = 29
BSTAR          = 0
MEAN_MOTION_DOT = .26E-6
MEAN_MOTION_DDOT = 0

CCSDS_OMM_VERS = 2.0
CREATION_DATE  = 
ORIGINATOR     = 

OBJECT_NAME    = CZ-5 R/B
OBJECT_ID      = 2025-306B
CENTER_NAME    = EARTH
REF_FRAME      = TEME
TIME_SYSTEM    = UTC
MEAN_ELEMENT_THEORY = SGP/SGP4

EPOCH          = 2026-01-08T23:16:58.378368
MEAN_MOTION    = 1.92448544
ECCENTRICITY   = .75784512
INCLINATION    = 16.3010
RA_OF_ASC_NODE = 292.5969
ARG_OF_PERICENTER = 190.8975
MEAN_ANOMALY   = 130.4185

EPHEMERIS_TYPE = 0
CLASSIFICATION_TYPE = U
NORAD_CAT_ID   = 67227
ELEMENT_SET_NO = 999
REV_AT_EPOCH   = 39
BSTAR          = .23703396E-2
MEAN_MOTION_DOT = .8924E-4
MEAN_MOTION_DDOT = 0

CCSDS_OMM_VERS = 2.0
CREATION_DATE  = 
ORIGINATOR     = 

OBJECT_NAME    = QPS-SAR-15
OBJECT_ID      = 2025-307A
CENTER_NAME    = EARTH
REF_FRAME      = TEME
TIME_SYSTEM    = UTC
MEAN_ELEMENT_THEORY = SGP/SGP4

EPOCH          = 2026-01-09T12:16:12.086400
MEAN_MOTION    = 14.97321068
ECCENTRICITY   = .00082322
INCLINATION    = 42.0080
RA_OF_ASC_NODE = 18.2532
ARG_OF_PERICENTER = 28.9129
MEAN_ANOMALY   = 331.2151

EPHEMERIS_TYPE = 0
CLASSIFICATION_TYPE = U
NORAD_CAT_ID   = 67228
ELEMENT_SET_NO = 999
REV_AT_EPOCH   = 288
BSTAR          = .52317089E-3
MEAN_MOTION_DOT = .5997E-4
MEAN_MOTION_DDOT = 0

