STARLINK-36221          
1 67215U 25304Z   26009.63829919  .00104691  00000+0  16788-2 0  9991
2 67215  70.0001 329.1763 0003135 268.3955  91.6872 15.52573852  4899
STARLINK-36212          
1 67216U 25304AA  26009.63795568  .00108417  00000+0  17377-2 0  9999
2 67216  70.0000 329.1749 0003152 270.2787  89.8038 15.52573034  4892
STARLINK-36216          
1 67217U 25304AB  26009.63761148  .00083000  00000+0  13356-2 0  9990
2 67217  70.0000 329.1735 0003125 269.5676  90.5153 15.52566606  4890
STARLINK-36211          
1 67218U 25304AC  26009.63727121  .00109160  00000+0  17494-2 0  9997
2 67218  70.0000 329.1723 0003250 262.3641  97.7177 15.52572963  4865
DISKSAT C               
1 67219U 25305A   26008.81609409  .00011233  00000+0  76769-3 0  9990
2 67219  45.0015 207.4328 0002438 353.8156   6.2688 15.06289617  3262
DISKSAT B               
1 67220U 25305B   26005.43427616  .00001001  00000+0  83453-4 0  9996
2 67220  45.0028 225.3108 0003243 352.9991   7.0838 15.06147621  2752
DISKSAT D               
1 67221U 25305C   26008.95010669  .00009542  00000+0  65623-3 0  9999
2 67221  45.0018 206.7414 0002446   6.6106 353.4801 15.06203255  3283
DISKSAT A               
1 67222U 25305D   26008.81848696  .00013120  00000+0  89695-3 0  9996
2 67222  45.0019 207.4498 0002440  13.2570 346.8368 15.06154760  3255
ELECTRON KICK STAGE R/B 
1 67223U 25305E   25357.29083347  .00018707  00000+0  18366-3 0  9992
2 67223  44.9877 292.9264 0177490 166.6089 193.9601 15.48545747   794
TJS-23                  
1 67226U 25306A   26009.03986698  .00000026  00000+0  00000+0 0  9991
2 67226   5.9502 298.3118 0000121   4.4365 355.7247  1.00268741   297
CZ-5 R/B                
1 67227U 25306B   26008.97012012  .00008924  00000+0  23703-2 0  9997
2 67227  16.3010 292.5969 7578451 190.8975 130.4185  1.92448544   390
QPS-SAR-15              
1 67228U 25307A   26009.51125100  .00005997  00000+0  52317-3 0  9994
2 67228  42.0080  18.2532 0008232  28.9129 331.2151 14.97321068  2883
